{
"type": "FeatureCollection",
"name": "snotel_stations",
"crs": { "type": "name", "properties": { "name": "urn:ogc:def:crs:OGC:1.3:CRS84" } },
"features": [
{ "type": "Feature", "properties": { "code": "546_ID_SNTL", "name": "Island Park", "network": "SNOTEL", "elevation_m": 1917.1920166015625, "latitude": 44.420299530029297, "longitude": -111.38511657714844, "state": "Idaho", "HUC": "170402020601", "mgrs": "12TVQ", "mountainRange": null, "beginDate": "1979-10-01", "endDate": "2026-03-29", "csvData": true }, "geometry": { "type": "Point", "coordinates": [ -111.385116577148438, 44.420299530029297 ] } }
]
}
